{
  "type": "FeatureCollection",
  "features": [
    {
      "type": "Feature",
      "properties": {
        "norad_id": 38479,
        "name": "COSMOS 2251 DEB",
        "group": "cosmos-2251-debris",
        "lat": 72.21243210469801,
        "lon": -110.88153731160821,
        "alt_km": 807.3430194344046,
        "timestamp": "2025-12-11T22:43:47.668835+00:00",
        "meta_object_name": "COSMOS 2251 DEB",
        "meta_object_id": "1993-036BTP",
        "meta_epoch": "2025-12-10T06:49:46.172352",
        "meta_mean_motion": 14.38253174,
        "meta_eccentricity": 0.0084224,
        "meta_inclination": 74.007,
        "meta_ra_of_asc_node": 188.8137,
        "meta_arg_of_pericenter": 298.3144,
        "meta_mean_anomaly": 178.6489,
        "meta_ephemeris_type": 0,
        "meta_classification_type": "U",
        "meta_norad_cat_id": 38479,
        "meta_element_set_no": 999,
        "meta_rev_at_epoch": 64652,
        "meta_bstar": 0.0026738,
        "meta_mean_motion_dot": 8.453e-05,
        "meta_mean_motion_ddot": 0,
        "tle_line1": "1 38479U 93036BTP 25344.28456218  .00008453  00000+0  26738-2 0  9993",
        "tle_line2": "2 38479  74.0070 188.8137 0084224 298.3144 178.6489 14.38253174646522"
      },
      "geometry": {
        "type": "Point",
        "coordinates": [
          -110.88153731160821,
          72.21243210469801
        ]
      }
    },
    {
      "type": "Feature",
      "properties": {
        "norad_id": 38481,
        "name": "COSMOS 2251 DEB",
        "group": "cosmos-2251-debris",
        "lat": 64.1750641556558,
        "lon": 152.3792884991631,
        "alt_km": 1066.4828882379225,
        "timestamp": "2025-12-11T22:43:47.668845+00:00",
        "meta_object_name": "COSMOS 2251 DEB",
        "meta_object_id": "1993-036BTR",
        "meta_epoch": "2025-12-11T08:25:34.899168",
        "meta_mean_motion": 13.94814903,
        "meta_eccentricity": 0.02344672,
        "meta_inclination": 73.9331,
        "meta_ra_of_asc_node": 9.956,
        "meta_arg_of_pericenter": 310.478,
        "meta_mean_anomaly": 47.6118,
        "meta_ephemeris_type": 0,
        "meta_classification_type": "U",
        "meta_norad_cat_id": 38481,
        "meta_element_set_no": 999,
        "meta_rev_at_epoch": 59041,
        "meta_bstar": 0.0026201501,
        "meta_mean_motion_dot": 4.395e-05,
        "meta_mean_motion_ddot": 0,
        "tle_line1": "1 38481U 93036BTR 25345.35109837  .00004395  00000+0  26202-2 0  9994",
        "tle_line2": "2 38481  73.9331   9.9560 0234467 310.4780  47.6118 13.94814903590418"
      },
      "geometry": {
        "type": "Point",
        "coordinates": [
          152.3792884991631,
          64.1750641556558
        ]
      }
    },
    {
      "type": "Feature",
      "properties": {
        "norad_id": 38483,
        "name": "COSMOS 2251 DEB",
        "group": "cosmos-2251-debris",
        "lat": 60.49843599937239,
        "lon": 163.27490808855464,
        "alt_km": 710.4683930905339,
        "timestamp": "2025-12-11T22:43:47.668856+00:00",
        "meta_object_name": "COSMOS 2251 DEB",
        "meta_object_id": "1993-036BTT",
        "meta_epoch": "2025-12-09T19:47:02.543136",
        "meta_mean_motion": 14.28773008,
        "meta_eccentricity": 0.01104951,
        "meta_inclination": 74.2621,
        "meta_ra_of_asc_node": 16.9647,
        "meta_arg_of_pericenter": 123.4818,
        "meta_mean_anomaly": 237.6953,
        "meta_ephemeris_type": 0,
        "meta_classification_type": "U",
        "meta_norad_cat_id": 38483,
        "meta_element_set_no": 999,
        "meta_rev_at_epoch": 63436,
        "meta_bstar": 0.0013200119,
        "meta_mean_motion_dot": 3.528e-05,
        "meta_mean_motion_ddot": 0,
        "tle_line1": "1 38483U 93036BTT 25343.82433499  .00003528  00000+0  13200-2 0  9991",
        "tle_line2": "2 38483  74.2621  16.9647 0110495 123.4818 237.6953 14.28773008634367"
      },
      "geometry": {
        "type": "Point",
        "coordinates": [
          163.27490808855464,
          60.49843599937239
        ]
      }
    },
    {
      "type": "Feature",
      "properties": {
        "norad_id": 38486,
        "name": "COSMOS 2251 DEB",
        "group": "cosmos-2251-debris",
        "lat": -29.54896800101156,
        "lon": -162.98706974702253,
        "alt_km": 636.6425933368964,
        "timestamp": "2025-12-11T22:43:47.668865+00:00",
        "meta_object_name": "COSMOS 2251 DEB",
        "meta_object_id": "1993-036BTW",
        "meta_epoch": "2025-12-11T09:00:08.342784",
        "meta_mean_motion": 14.73192637,
        "meta_eccentricity": 0.00301862,
        "meta_inclination": 73.9417,
        "meta_ra_of_asc_node": 207.5314,
        "meta_arg_of_pericenter": 352.193,
        "meta_mean_anomaly": 184.8713,
        "meta_ephemeris_type": 0,
        "meta_classification_type": "U",
        "meta_norad_cat_id": 38486,
        "meta_element_set_no": 999,
        "meta_rev_at_epoch": 75414,
        "meta_bstar": 0.0047751445,
        "meta_mean_motion_dot": 0.00031144,
        "meta_mean_motion_ddot": 0,
        "tle_line1": "1 38486U 93036BTW 25345.37509656  .00031144  00000+0  47751-2 0  9998",
        "tle_line2": "2 38486  73.9417 207.5314 0030186 352.1930 184.8713 14.73192637754141"
      },
      "geometry": {
        "type": "Point",
        "coordinates": [
          -162.98706974702253,
          -29.54896800101156
        ]
      }
    },
    {
      "type": "Feature",
      "properties": {
        "norad_id": 38487,
        "name": "COSMOS 2251 DEB",
        "group": "cosmos-2251-debris",
        "lat": -18.184223830299196,
        "lon": 30.066104424246518,
        "alt_km": 529.1489066194154,
        "timestamp": "2025-12-11T22:43:47.668876+00:00",
        "meta_object_name": "COSMOS 2251 DEB",
        "meta_object_id": "1993-036BTX",
        "meta_epoch": "2025-12-11T10:09:12.119616",
        "meta_mean_motion": 15.17187226,
        "meta_eccentricity": 0.00216469,
        "meta_inclination": 73.975,
        "meta_ra_of_asc_node": 36.5808,
        "meta_arg_of_pericenter": 208.4932,
        "meta_mean_anomaly": 151.5082,
        "meta_ephemeris_type": 0,
        "meta_classification_type": "U",
        "meta_norad_cat_id": 38487,
        "meta_element_set_no": 999,
        "meta_rev_at_epoch": 66780,
        "meta_bstar": 0.0038669119,
        "meta_mean_motion_dot": 0.00078094,
        "meta_mean_motion_ddot": 0,
        "tle_line1": "1 38487U 93036BTX 25345.42305694  .00078094  00000+0  38669-2 0  9994",
        "tle_line2": "2 38487  73.9750  36.5808 0021646 208.4932 151.5082 15.17187226667809"
      },
      "geometry": {
        "type": "Point",
        "coordinates": [
          30.066104424246518,
          -18.184223830299196
        ]
      }
    },
    {
      "type": "Feature",
      "properties": {
        "norad_id": 39109,
        "name": "COSMOS 2251 DEB",
        "group": "cosmos-2251-debris",
        "lat": 34.01770310388684,
        "lon": -122.24732468114371,
        "alt_km": 638.8161529657264,
        "timestamp": "2025-12-11T22:43:47.668886+00:00",
        "meta_object_name": "COSMOS 2251 DEB",
        "meta_object_id": "1993-036BTY",
        "meta_epoch": "2025-12-09T10:58:18.988608",
        "meta_mean_motion": 14.70683686,
        "meta_eccentricity": 0.00592583,
        "meta_inclination": 74.0426,
        "meta_ra_of_asc_node": 231.4464,
        "meta_arg_of_pericenter": 335.6145,
        "meta_mean_anomaly": 202.0339,
        "meta_ephemeris_type": 0,
        "meta_classification_type": "U",
        "meta_norad_cat_id": 39109,
        "meta_element_set_no": 999,
        "meta_rev_at_epoch": 65125,
        "meta_bstar": 0.00089315049,
        "meta_mean_motion_dot": 5.561e-05,
        "meta_mean_motion_ddot": 0,
        "tle_line1": "1 39109U 93036BTY 25343.45716422  .00005561  00000+0  89315-3 0  9996",
        "tle_line2": "2 39109  74.0426 231.4464 0059258 335.6145 202.0339 14.70683686651254"
      },
      "geometry": {
        "type": "Point",
        "coordinates": [
          -122.24732468114371,
          34.01770310388684
        ]
      }
    },
    {
      "type": "Feature",
      "properties": {
        "norad_id": 39110,
        "name": "COSMOS 2251 DEB",
        "group": "cosmos-2251-debris",
        "lat": -29.88059513092618,
        "lon": -107.42564299044012,
        "alt_km": 651.852642353334,
        "timestamp": "2025-12-11T22:43:47.668896+00:00",
        "meta_object_name": "COSMOS 2251 DEB",
        "meta_object_id": "1993-036BTZ",
        "meta_epoch": "2025-12-03T13:14:13.055136",
        "meta_mean_motion": 14.72215365,
        "meta_eccentricity": 0.00964609,
        "meta_inclination": 73.9598,
        "meta_ra_of_asc_node": 79.4668,
        "meta_arg_of_pericenter": 313.6965,
        "meta_mean_anomaly": 59.6182,
        "meta_ephemeris_type": 0,
        "meta_classification_type": "U",
        "meta_norad_cat_id": 39110,
        "meta_element_set_no": 999,
        "meta_rev_at_epoch": 62349,
        "meta_bstar": 0.00066560445,
        "meta_mean_motion_dot": 4.484e-05,
        "meta_mean_motion_ddot": 0,
        "tle_line1": "1 39110U 93036BTZ 25337.55153999  .00004484  00000+0  66560-3 0  9996",
        "tle_line2": "2 39110  73.9598  79.4668 0096460 313.6965  59.6182 14.72215365623496"
      },
      "geometry": {
        "type": "Point",
        "coordinates": [
          -107.42564299044012,
          -29.88059513092618
        ]
      }
    }
  ]
}